{
    "links": {
        "self": "http://www.neowsapp.com/rest/v1/neo/3710557?api_key=iIulBulltgU6a56xZRHN4H3l9WmuAYTsLGpBGhQ2"
    },
    "id": "3710557",
    "neo_reference_id": "3710557",
    "name": "(2015 CZ39)",
    "designation": "2015 CZ39",
    "nasa_jpl_url": "http://ssd.jpl.nasa.gov/sbdb.cgi?sstr=3710557",
    "absolute_magnitude_h": 23.0,
    "estimated_diameter": {
        "kilometers": {
            "estimated_diameter_min": 0.0667659413,
            "estimated_diameter_max": 0.1492931834
        },
        "meters": {
            "estimated_diameter_min": 66.7659413495,
            "estimated_diameter_max": 149.2931834393
        },
        "miles": {
            "estimated_diameter_min": 0.0414864197,
            "estimated_diameter_max": 0.0927664547
        },
        "feet": {
            "estimated_diameter_min": 219.0483710172,
            "estimated_diameter_max": 489.807047955
        }
    },
    "is_potentially_hazardous_asteroid": false,
    "close_approach_data": [
        {
            "close_approach_date": "1925-02-06",
            "close_approach_date_full": "1925-Feb-06 07:04",
            "epoch_date_close_approach": -1416934560000,
            "relative_velocity": {
                "kilometers_per_second": "25.1918622943",
                "kilometers_per_hour": "90690.7042593104",
                "miles_per_hour": "56351.6767660143"
            },
            "miss_distance": {
                "astronomical": "0.324979205",
                "lunar": "126.416910745",
                "kilometers": "48616196.86229335",
                "miles": "30208703.93401423"
            },
            "orbiting_body": "Earth"
        },
        {
            "close_approach_date": "2015-01-23",
            "close_approach_date_full": "2015-Jan-23 06:53",
            "epoch_date_close_approach": 1421995980000,
            "relative_velocity": {
                "kilometers_per_second": "17.1615330387",
                "kilometers_per_hour": "61781.518939252",
                "miles_per_hour": "38388.6332542258"
            },
            "miss_distance": {
                "astronomical": "0.0598072233",
                "lunar": "23.2650098637",
                "kilometers": "8947033.216294371",
                "miles": "5559428.6464734798"
            },
            "orbiting_body": "Earth"
        }
    ],
    "orbital_data": {
        "orbit_id": "9",
        "orbit_determination_date": "2017-04-06 08:35:38",
        "first_observation_date": "2015-02-13",
        "last_observation_date": "2015-02-25",
        "data_arc_in_days": 12,
        "observations_used": 18,
        "orbit_uncertainty": "9",
        "minimum_orbit_intersection": ".0136302",
        "jupiter_tisserand_invariant": "3.221",
        "epoch_osculation": "2457071.5",
        "eccentricity": ".663037609559217",
        "semi_major_axis": "2.347785990354203",
        "inclination": "1.98659406769544",
        "ascending_node_longitude": "94.34090796095026",
        "orbital_period": "1313.972230817015",
        "perihelion_distance": ".7911155795531334",
        "perihelion_argument": "324.1217674396256",
        "aphelion_distance": "3.904456401155273",
        "perihelion_time": "2457006.098611223390",
        "mean_anomaly": "17.91856738474592",
        "mean_motion": ".2739783928128798",
        "equinox": "J2000",
        "orbit_class": {
            "orbit_class_type": "APO",
            "orbit_class_description": "Near-Earth asteroid orbits which cross the Earth’s orbit similar to that of 1862 Apollo",
            "orbit_class_range": "a (semi-major axis) > 1.0 AU; q (perihelion) < 1.017 AU"
        }
    },
    "is_sentry_object": false
}